format  = 'OEF1.1'       ! file format
rectype = 'ML'           ! record type (1L/ML)
refsys  = ECLM J2000     ! default reference system
END_OF_HEADER
2007VA85
! Equinoctial elements: a, e*sin(LP), e*cos(LP), tan(i/2)*sin(LN), tan(i/2)*cos(LN), mean long.
 EQU   4.20655147958028E+00   0.464441776782387  -0.573086198010046    2.051359609304019   -0.973066949731999 153.9343155548519
 MJD     54422.770628864 TDT
 MAG  15.093  0.150
! RMS    7.27063E-04   1.25396E-05   6.19460E-05   3.14099E-05   1.53782E-05   5.32315E-04
! EIG   4.99616E-08   1.89761E-07   3.34965E-06   3.98586E-06   1.60907E-05   7.30506E-04
! WEA   0.99529  -0.01546  -0.08471  -0.03994  -0.01985   0.00103
 COV   5.286205697918675E-07 -8.207572931091432E-09 -4.498807431791960E-08
 COV  -2.120137376537888E-08 -1.053975891698132E-08  3.093243753008556E-08
 COV   1.572417941562252E-10  7.136294157743807E-10  3.857648119928427E-10
 COV   1.797135565456646E-10 -3.365099596142048E-09  3.837303970854557E-09
 COV   1.833867277033202E-09  9.090938910065996E-10 -4.116654298349261E-09
 COV   9.865842973802440E-10  4.597162519835454E-10 -6.961999926258858E-09
 COV   2.364887994303667E-10 -2.287109986800790E-09  2.833591197151166E-07
 NOR   1.748427515365583E+11 -1.298611935273027E+12  2.407685558855513E+12
 NOR   3.251654165864178E+10 -5.718450356007725E+11 -3.346122106950192E+09
 NOR   2.681270254838776E+14 -7.860902537124275E+13  2.043035723283380E+13
 NOR   2.908169546628870E+13  2.920627287610035E+12  4.743488714407160E+13
 NOR  -4.429779370916241E+12 -1.372213769462781E+13 -7.268300121777773E+11
 NOR   1.707973622802834E+12  1.874005837714095E+12  2.318099747785718E+11
 NOR   4.323919043421932E+12  2.893789774578509E+11  3.252515786734786E+10
